H1 CPF  1  DLR 2021 07 18 10  6992 technosat            
H2  1704205 6203    42829 2021 07 18 00 00 00 2021 07 25 00 00 00    60 1 1  0 0 0
H9
10 0 59420      0.000000  0       3790896.823      -5030998.347      -3024921.901
99
